IRIDIUM 171             
1 43929U 19002H   25065.71225507  .00000332  00000+0  11138-3 0  9990
2 43929  86.4047 189.1780 0001696  90.7186 269.4204 14.34219116321954
IRIDIUM 170             
1 43930U 19002J   25065.68331594  .00001924  00000+0  30126-3 0  9998
2 43930  86.6162 188.9637 0002313  82.7371 277.4109 14.72249351330474
IRIDIUM 167             
1 43931U 19002K   25065.70591201  .00000385  00000+0  13059-3 0  9991
2 43931  86.4037 188.9447 0002107  84.3804 275.7632 14.34213096321953
IRIDIUM 181             
1 56726U 23068S   25065.54904456  .00000247  00000+0  67358-4 0  9995
2 56726  86.4456 252.1003 0001786  78.4855 281.6547 14.43309155 94981
IRIDIUM 177             
1 56727U 23068T   25066.39829382  .00001535  00000+0  19855-3 0  9993
2 56727  86.2028 190.3984 0002132  87.9278 272.2187 14.80233940 97311
IRIDIUM 174             
1 56728U 23068U   25066.39286229  .00002182  00000+0  28371-3 0  9993
2 56728  86.2029 190.5252 0001608  99.3568 260.7835 14.80236434 97312
IRIDIUM 178             
1 56729U 23068V   25066.45503559  .00002302  00000+0  29943-3 0  9999
2 56729  86.5782 220.3887 0001299 107.0221 253.1143 14.80237585 97324
IRIDIUM 179             
1 56730U 23068W   25066.51718525  .00003176  00000+0  41468-3 0  9995
2 56730  86.6778 227.8058 0002086  93.9283 266.2177 14.80219739 97334
